NORAD_CAT_ID,OBJECT_NAME,OBJECT_TYPE,EPOCH,MEAN_MOTION,ECCENTRICITY,INCLINATION,RA_OF_ASC_NODE,ARG_OF_PERICENTER,MEAN_ANOMALY,BSTAR,MEAN_MOTION_DOT,MEAN_MOTION_DDOT,TLE_LINE0,TLE_LINE1,TLE_LINE2,SEMIMAJOR_AXIS,PERIOD,APOGEE,PERIGEE,DECAYED
54170.0,STARLINK-5155,PAYLOAD,2023-01-23 05:15:48,15.08835739,8.6e-05,53.2169,88.4291,87.0136,273.0954,0.00058971,9.109e-05,0.0,0 STARLINK-5155,1 54170U 22141P   23023.21931588  .00009109  00000-0  58971-3 0  9996,2 54170  53.2169  88.4291 0000860  87.0136 273.0954 15.08835739 13526,6917.893,95.438,540.3530000000001,539.163,0.0
54170.0,STARLINK-5155,PAYLOAD,2023-01-24 11:28:08,15.08846747,0.0001074,53.2163,82.7784,94.0871,266.0244,0.00068354,0.00010609,0.0,0 STARLINK-5155,1 54170U 22141P   23024.47788181  .00010609  00000-0  68354-3 0  9997,2 54170  53.2163  82.7784 0001074  94.0871 266.0244 15.08846747 13712,6917.86,95.437,540.4680000000001,538.982,0.0
54170.0,STARLINK-5155,PAYLOAD,2023-01-25 03:22:00,15.08841394,0.0001273,53.218,79.8068,102.0524,258.0611,0.00041174,6.271e-05,0.0,0 STARLINK-5155,1 54170U 22141P   23025.14028613  .00006271  00000-0  41174-3 0  9990,2 54170  53.2180  79.8068 0001273 102.0524 258.0611 15.08841394 13812,6917.876,95.437,540.622,538.86,0.0
54170.0,STARLINK-5155,PAYLOAD,2023-01-25 09:43:33,15.0884229,0.0001228,53.217,78.6153,104.4824,255.6304,0.00066842,0.00010367,0.0,0 STARLINK-5155,1 54170U 22141P   23025.40524679  .00010367  00000-0  66842-3 0  9992,2 54170  53.2170  78.6153 0001228 104.4824 255.6304 15.08842290 13865,6917.8730000000005,95.437,540.5880000000001,538.889,0.0
54170.0,STARLINK-5155,PAYLOAD,2023-01-26 03:12:47,15.08845651,0.0001094999999999,53.2156,75.3433,103.587,256.5244,0.00041952,6.396e-05,0.0,0 STARLINK-5155,1 54170U 22141P   23026.13388677  .00006396  00000-0  41952-3 0  9991,2 54170  53.2156  75.3433 0001095 103.5870 256.5244 15.08845651 13965,6917.863,95.437,540.486,538.971,0.0
54170.0,STARLINK-5155,PAYLOAD,2023-01-26 09:34:20,15.08852157,0.0001153,53.216,74.1538,103.1754,256.9366,0.00045203,6.916e-05,0.0,0 STARLINK-5155,1 54170U 22141P   23026.39884406  .00006916  00000-0  45203-3 0  9991,2 54170  53.2160  74.1538 0001153 103.1754 256.9366 15.08852157 14010,6917.843000000001,95.437,540.506,538.911,0.0
54170.0,STARLINK-5155,PAYLOAD,2023-01-27 03:03:34,15.08848168,0.0001394,53.2163,70.8851,79.9861,280.1289,0.00029347,4.387e-05,0.0,0 STARLINK-5155,1 54170U 22141P   23027.12748533  .00004387  00000-0  29347-3 0  9994,2 54170  53.2163  70.8851 0001394  79.9861 280.1289 15.08848168 14111,6917.855,95.437,540.685,538.756,0.0
54170.0,STARLINK-5155,PAYLOAD,2023-01-27 07:49:44,15.08846242,0.0001298,53.2168,69.9923,85.7951,274.319,0.00019441,2.808e-05,0.0,0 STARLINK-5155,1 54170U 22141P   23027.32620448  .00002808  00000-0  19441-3 0  9990,2 54170  53.2168  69.9923 0001298  85.7951 274.3190 15.08846242 14154,6917.861,95.437,540.624,538.828,0.0
54170.0,STARLINK-5155,PAYLOAD,2023-01-28 02:54:21,15.08840838,0.0001396999999999,53.2166,66.4239,85.3437,274.7714,1.4516e-05,-5.7e-07,0.0,0 STARLINK-5155,1 54170U 22141P   23028.12108542 -.00000057  00000-0  14516-4 0  9999,2 54170  53.2166  66.4239 0001397  85.3437 274.7714 15.08840838 14262,6917.878000000001,95.438,540.7090000000001,538.776,0.0
54170.0,STARLINK-5155,PAYLOAD,2023-01-28 12:26:40,15.08842576,0.0001287,53.2178,64.6391,96.0243,264.0896,2.6757e-05,1.38e-06,0.0,0 STARLINK-5155,1 54170U 22141P   23028.51852453  .00000138  00000-0  26757-4 0  9998,2 54170  53.2178  64.6391 0001287  96.0243 264.0896 15.08842576 14338,6917.873,95.437,540.628,538.847,0.0
54170.0,STARLINK-5155,PAYLOAD,2023-01-28 18:48:13,15.08839888,0.0001265,53.2175,63.4494,89.6152,270.4985,-4.815e-05,-1.054e-05,0.0,0 STARLINK-5155,1 54170U 22141P   23028.78348752 -.00001054  00000-0 -48150-4 0  9990,2 54170  53.2175  63.4494 0001265  89.6152 270.4985 15.08839888 14375,6917.881,95.438,540.621,538.871,0.0
54170.0,STARLINK-5155,PAYLOAD,2023-01-29 02:45:09,15.08836026,0.0001317,53.2176,61.9624,92.4167,267.6976,1.6747e-05,-2.1e-07,0.0,0 STARLINK-5155,1 54170U 22141P   23029.11468976 -.00000021  00000-0  16747-4 0  9998,2 54170  53.2176  61.9624 0001317  92.4167 267.6976 15.08836026 14414,6917.893,95.438,540.669,538.846,0.0
54170.0,STARLINK-5155,PAYLOAD,2023-01-29 10:42:04,15.08842455,0.000153,53.2183,60.4753,96.9162,263.2004,7.4623e-05,9e-06,0.0,0 STARLINK-5155,1 54170U 22141P   23029.44588391  .00000900  00000-0  74623-4 0  9990,2 54170  53.2183  60.4753 0001530  96.9162 263.2004 15.08842455 14462,6917.873,95.437,540.796,538.679,0.0
54170.0,STARLINK-5155,PAYLOAD,2023-01-29 18:39:00,15.08835382,0.000148,53.2184,58.9875,95.1002,265.0159,6.0501e-05,6.75e-06,0.0,0 STARLINK-5155,1 54170U 22141P   23029.77708895  .00000675  00000-0  60501-4 0  9998,2 54170  53.2184  58.9875 0001480  95.1002 265.0159 15.08835382 14516,6917.895,95.438,540.783,538.736,0.0
54170.0,STARLINK-5155,PAYLOAD,2023-01-30 02:35:56,15.08828489,0.0001434,53.2181,57.5018,98.5628,261.5527,1.1172e-05,-1.1e-06,0.0,0 STARLINK-5155,1 54170U 22141P   23030.10829575 -.00000110  00000-0  11172-4 0  9991,2 54170  53.2181  57.5018 0001434  98.5628 261.5527 15.08828489 14562,6917.916,95.438,540.773,538.789,0.0
54170.0,STARLINK-5155,PAYLOAD,2023-01-30 07:22:06,15.08830594,0.0001443,53.2184,56.6097,100.7738,259.3416,2.3639e-05,8.8e-07,0.0,0 STARLINK-5155,1 54170U 22141P   23030.30701475  .00000088  00000-0  23639-4 0  9995,2 54170  53.2184  56.6097 0001443 100.7738 259.3416 15.08830594 14607,6917.909,95.438,540.772,538.776,0.0
54170.0,STARLINK-5155,PAYLOAD,2023-01-30 18:29:47,15.08838092,0.0001443,53.2184,54.5288,90.0276,270.0881,2.7007e-05,1.42e-06,0.0,0 STARLINK-5155,1 54170U 22141P   23030.77069183  .00000142  00000-0  27007-4 0  9993,2 54170  53.2184  54.5288 0001443  90.0276 270.0881 15.08838092 14667,6917.886,95.438,540.749,538.753,0.0
54170.0,STARLINK-5155,PAYLOAD,2023-01-31 10:23:38,15.08842199,0.0001417,53.2185,51.5557,92.763,267.3525,4.742e-05,4.67e-06,0.0,0 STARLINK-5155,1 54170U 22141P   23031.43308999  .00000467  00000-0  47420-4 0  9999,2 54170  53.2185  51.5557 0001417  92.7630 267.3525 15.08842199 14777,6917.874,95.437,540.719,538.758,0.0
54170.0,STARLINK-5155,PAYLOAD,2023-01-31 18:20:34,15.08841631,0.0001277,53.2178,50.0684,87.2675,272.8464,-3.6842e-06,-3.47e-06,0.0,0 STARLINK-5155,1 54170U 22141P   23031.76429118 -.00000347  00000-0 -36842-5 0  9998,2 54170  53.2178  50.0684 0001277  87.2675 272.8464 15.08841631 14825,6917.875,95.437,540.624,538.857,0.0
54170.0,STARLINK-5155,PAYLOAD,2023-02-01 02:17:30,15.08836876,0.000129,53.2178,48.5811,83.6577,276.4562,0.00012423,1.69e-05,0.0,0 STARLINK-5155,1 54170U 22141P   23032.09549134  .00001690  00000-0  12423-3 0  9993,2 54170  53.2178  48.5811 0001290  83.6577 276.4562 15.08836876 14863,6917.89,95.438,540.647,538.863,0.0
54170.0,STARLINK-5155,PAYLOAD,2023-02-01 08:39:02,15.08843926,0.0001341,53.2181,47.3918,82.7943,277.3201,9.8061e-05,1.273e-05,0.0,0 STARLINK-5155,1 54170U 22141P   23032.36044807  .00001273  00000-0  98061-4 0  9990,2 54170  53.2181  47.3918 0001341  82.7943 277.3201 15.08843926 14916,6917.868,95.437,540.661,538.806,0.0
54170.0,STARLINK-5155,PAYLOAD,2023-02-02 06:54:26,15.08842813,0.0001369,53.2178,43.2282,89.2321,270.8828,4.7422e-05,4.67e-06,0.0,0 STARLINK-5155,1 54170U 22141P   23033.28780954  .00000467  00000-0  47422-4 0  9991,2 54170  53.2178  43.2282 0001369  89.2321 270.8828 15.08842813 15056,6917.872,95.437,540.684,538.79,0.0
54170.0,STARLINK-5155,PAYLOAD,2023-02-03 06:45:13,15.08844074,0.0001308,53.219,38.7685,93.7048,266.4093,6.2586e-05,7.08e-06,0.0,0 STARLINK-5155,1 54170U 22141P   23034.28140750  .00000708  00000-0  62586-4 0  9992,2 54170  53.2190  38.7685 0001308  93.7048 266.4093 15.08844074 15208,6917.868,95.437,540.638,538.828,0.0
54170.0,STARLINK-5155,PAYLOAD,2023-02-04 03:25:14,15.08837404,0.0001317,53.2185,34.9021,102.0648,258.0492,3.3341e-05,2.43e-06,0.0,0 STARLINK-5155,1 54170U 22141P   23035.14253237  .00000243  00000-0  33341-4 0  9994,2 54170  53.2185  34.9021 0001317 102.0648 258.0492 15.08837404 15326,6917.888,95.438,540.664,538.842,0.0
54170.0,STARLINK-5155,PAYLOAD,2023-02-04 09:46:46,15.08844162,0.0001226,53.218,33.7131,90.9423,269.171,8.5979e-05,1.081e-05,0.0,0 STARLINK-5155,1 54170U 22141P   23035.40748698  .00001081  00000-0  85979-4 0  9998,2 54170  53.2180  33.7131 0001226  90.9423 269.1710 15.08844162 15375,6917.868,95.437,540.581,538.885,0.0
54170.0,STARLINK-5155,PAYLOAD,2023-02-05 03:16:02,15.08835588,0.0001258,53.2176,30.4411,92.3699,267.7438,-1.398e-05,-5.1e-06,0.0,0 STARLINK-5155,1 54170U 22141P   23036.13613683 -.00000510  00000-0 -13980-4 0  9995,2 54170  53.2176  30.4411 0001258  92.3699 267.7438 15.08835588 15475,6917.894,95.438,540.629,538.889,0.0
54170.0,STARLINK-5155,PAYLOAD,2023-02-05 08:02:11,15.08841592,0.0001224,53.2191,29.5507,97.777,262.3361,5.9069e-05,6.52e-06,0.0,0 STARLINK-5155,1 54170U 22141P   23036.33485101  .00000652  00000-0  59069-4 0  9992,2 54170  53.2191  29.5507 0001224  97.7770 262.3361 15.08841592 15501,6917.876,95.437,540.587,538.894,0.0
54170.0,STARLINK-5155,PAYLOAD,2023-02-06 03:06:49,15.08836829,0.0001177,53.2197,25.9834,93.9096,266.2031,1.7225e-05,-1.4e-07,0.0,0 STARLINK-5155,1 54170U 22141P   23037.12973745 -.00000014  00000-0  17225-4 0  9997,2 54170  53.2197  25.9834 0001177  93.9096 266.2031 15.08836829 15623,6917.89,95.438,540.569,538.941,0.0
54170.0,STARLINK-5155,PAYLOAD,2023-02-06 09:28:21,15.08847025,0.0001276,53.2196,24.7926,90.5696,269.5442,7.9332e-05,9.75e-06,0.0,0 STARLINK-5155,1 54170U 22141P   23037.39468919  .00000975  00000-0  79332-4 0  9990,2 54170  53.2196  24.7926 0001276  90.5696 269.5442 15.08847025 15666,6917.859,95.437,540.607,538.841,0.0
54170.0,STARLINK-5155,PAYLOAD,2023-02-07 02:57:38,15.0882229,0.0001325,53.2187,21.5212,96.1509,263.9634,-0.00010467,-1.952e-05,0.0,0 STARLINK-5155,1 54170U 22141P   23038.12335861 -.00001952  00000-0 -10467-3 0  9992,2 54170  53.2187  21.5212 0001325  96.1509 263.9634 15.08822290 15779,6917.935,95.439,540.716,538.883,0.0
